{
  "norad_id": 51814,
  "name": "STARLINK-3599",
  "history": [
    {
      "epoch": "2026-03-28T21:43:10.863840Z",
      "apogee_km": 540.6970541174423,
      "perigee_km": 538.7074835437261,
      "latitude_deg": -2.687254831053466e-05,
      "longitude_deg": 90.74508234781456,
      "height_km": 541.058050718588,
      "semi_major_axis_km": 6917.839268830584,
      "eccentricity": 0.0001438,
      "inclination_deg": 53.2159,
      "raan_deg": 242.8591,
      "arg_perigee_deg": 117.5504,
      "mean_anomaly_deg": 242.5634,
      "mean_motion_rev_day": 15.08853453
    }
  ]
}